{
  "norad_id": 66399,
  "name": "STARLINK-35657",
  "history": [
    {
      "epoch": "2026-03-28T12:38:16.311552",
      "apogee_km": 476.0228688329753,
      "perigee_km": 474.4024628379857,
      "latitude_deg": -9.444855202343303,
      "longitude_deg": 150.45145727996714,
      "semi_major_axis_km": 6853.34966583548,
      "eccentricity": 0.00011822,
      "inclination_deg": 53.1591,
      "raan_deg": 129.7993,
      "arg_perigee_deg": 86.8221,
      "mean_anomaly_deg": 273.2915,
      "mean_motion_rev_day": 15.30200805
    }
  ]
}